start=new Date('2021-10-02T00:00:00.000Z').valueOf();
sats=[{"BSTAR":"0.00004873600000","TIME_SYSTEM":"UTC","DECAY_DATE":null,"EPHEMERIS_TYPE":"0","TLE_LINE1":"1 45535U 20025E   21274.47292583  .00000444  00000-0  48736-4 0  9991","INCLINATION":"53.0547","APOAPSIS":"548.605","OBJECT_NAME":"STARLINK-1350","EPOCH":"2021-10-01T11:21:00.791712","ELEMENT_SET_NO":"999","SITE":"AFETR","MEAN_MOTION_DOT":"0.00000444","CENTER_NAME":"EARTH","LAUNCH_DATE":"2020-04-22","ECCENTRICITY":"0.00019820","TLE_LINE2":"2 45535  53.0547 180.0663 0001982  67.8627 292.2572 15.06394004 80300","MEAN_MOTION":"15.06394004","REF_FRAME":"TEME","RCS_SIZE":"LARGE","GP_ID":"185928756","NORAD_CAT_ID":"45535","CLASSIFICATION_TYPE":"U","MEAN_ANOMALY":"292.2572","OBJECT_TYPE":"PAYLOAD","FILE":"3138924","MEAN_ELEMENT_THEORY":"SGP4","PERIAPSIS":"545.859","RA_OF_ASC_NODE":"180.0663","REV_AT_EPOCH":"8030","ARG_OF_PERICENTER":"67.8627","OBJECT_ID":"2020-025E","SEMIMAJOR_AXIS":"6925.367","PERIOD":"95.593","COUNTRY_CODE":"US","MEAN_MOTION_DDOT":"0.0000000000000"},{"OBJECT_TYPE":"PAYLOAD","MEAN_ANOMALY":"289.6986","FILE":"3139397","MEAN_ELEMENT_THEORY":"SGP4","PERIAPSIS":"545.954","RA_OF_ASC_NODE":"178.2588","REV_AT_EPOCH":"8094","ARG_OF_PERICENTER":"70.4199","OBJECT_ID":"2020-025F","SEMIMAJOR_AXIS":"6925.348","PERIOD":"95.592","COUNTRY_CODE":"US","MEAN_MOTION_DDOT":"0.0000000000000","BSTAR":"0.00003519900000","TIME_SYSTEM":"UTC","DECAY_DATE":null,"EPHEMERIS_TYPE":"0","TLE_LINE1":"1 45536U 20025F   21274.87469158  .00000243  00000-0  35199-4 0  9996","INCLINATION":"53.0539","APOAPSIS":"548.472","OBJECT_NAME":"STARLINK-1352","ELEMENT_SET_NO":"999","EPOCH":"2021-10-01T20:59:33.352512","SITE":"AFETR","CENTER_NAME":"EARTH","MEAN_MOTION_DOT":"0.00000243","LAUNCH_DATE":"2020-04-22","TLE_LINE2":"2 45536  53.0539 178.2588 0001818  70.4199 289.6986 15.06400124 80949","ECCENTRICITY":"0.00018180","MEAN_MOTION":"15.06400124","REF_FRAME":"TEME","RCS_SIZE":"LARGE","GP_ID":"185959562","NORAD_CAT_ID":"45536","CLASSIFICATION_TYPE":"U"},{"TIME_SYSTEM":"UTC","DECAY_DATE":null,"BSTAR":"0.00047375000000","TLE_LINE1":"1 45537U 20025G   21274.85555030  .00008546  00000-0  47375-3 0  9992","INCLINATION":"53.0013","EPHEMERIS_TYPE":"0","APOAPSIS":"523.119","ELEMENT_SET_NO":"999","EPOCH":"2021-10-01T20:31:59.545920","OBJECT_NAME":"STARLINK-1353","CENTER_NAME":"EARTH","MEAN_MOTION_DOT":"0.00008546","LAUNCH_DATE":"2020-04-22","SITE":"AFETR","TLE_LINE2":"2 45537  53.0013 155.3149 0001171  36.7939 323.3133 15.14561884 81250","ECCENTRICITY":"0.00011710","MEAN_MOTION":"15.14561884","REF_FRAME":"TEME","NORAD_CAT_ID":"45537","GP_ID":"185959806","CLASSIFICATION_TYPE":"U","RCS_SIZE":"LARGE","OBJECT_TYPE":"PAYLOAD","MEAN_ANOMALY":"323.3133","MEAN_ELEMENT_THEORY":"SGP4","FILE":"3139397","PERIAPSIS":"521.503","RA_OF_ASC_NODE":"155.3149","ARG_OF_PERICENTER":"36.7939","OBJECT_ID":"2020-025G","SEMIMAJOR_AXIS":"6900.446","REV_AT_EPOCH":"8125","PERIOD":"95.077","MEAN_MOTION_DDOT":"0.0000000000000","COUNTRY_CODE":"US"},{"MEAN_MOTION":"15.06401475","REF_FRAME":"TEME","CLASSIFICATION_TYPE":"U","NORAD_CAT_ID":"45538","GP_ID":"185960560","RCS_SIZE":"LARGE","LAUNCH_DATE":"2020-04-22","CENTER_NAME":"EARTH","MEAN_MOTION_DOT":"0.00000708","SITE":"AFETR","TLE_LINE2":"2 45538  53.0545 178.1366 0001789  83.1535 276.9658 15.06401475 80959","ECCENTRICITY":"0.00017890","APOAPSIS":"548.448","EPOCH":"2021-10-01T21:36:41.917824","ELEMENT_SET_NO":"999","OBJECT_NAME":"STARLINK-1362","DECAY_DATE":null,"TIME_SYSTEM":"UTC","BSTAR":"0.00006643900000","INCLINATION":"53.0545","TLE_LINE1":"1 45538U 20025H   21274.90048516  .00000708  00000-0  66439-4 0  9990","EPHEMERIS_TYPE":"0","SEMIMAJOR_AXIS":"6925.344","OBJECT_ID":"2020-025H","ARG_OF_PERICENTER":"83.1535","REV_AT_EPOCH":"8095","COUNTRY_CODE":"US","MEAN_MOTION_DDOT":"0.0000000000000","PERIOD":"95.592","PERIAPSIS":"545.970","RA_OF_ASC_NODE":"178.1366","MEAN_ANOMALY":"276.9658","OBJECT_TYPE":"PAYLOAD","MEAN_ELEMENT_THEORY":"SGP4","FILE":"3139397"},{"MEAN_MOTION":"15.71484551","REF_FRAME":"TEME","CLASSIFICATION_TYPE":"U","GP_ID":"185958813","NORAD_CAT_ID":"45539","RCS_SIZE":"LARGE","LAUNCH_DATE":"2020-04-22","CENTER_NAME":"EARTH","MEAN_MOTION_DOT":"0.00015326","SITE":"AFETR","TLE_LINE2":"2 45539  53.0558 104.7129 0002541  15.2952 344.8142 15.71484551 81954","ECCENTRICITY":"0.00025410","APOAPSIS":"356.366","ELEMENT_SET_NO":"999","EPOCH":"2021-10-01T19:34:22.812384","OBJECT_NAME":"STARLINK-1367","DECAY_DATE":null,"TIME_SYSTEM":"UTC","BSTAR":"0.00012185000000","TLE_LINE1":"1 45539U 20025J   21274.81554181  .00015326  00000-0  12185-3 0  9991","INCLINATION":"53.0558","EPHEMERIS_TYPE":"0","SEMIMAJOR_AXIS":"6732.790","OBJECT_ID":"2020-025J","ARG_OF_PERICENTER":"15.2952","REV_AT_EPOCH":"8195","COUNTRY_CODE":"US","MEAN_MOTION_DDOT":"0.0000000000000","PERIOD":"91.633","PERIAPSIS":"352.945","RA_OF_ASC_NODE":"104.7129","MEAN_ANOMALY":"344.8142","OBJECT_TYPE":"PAYLOAD","MEAN_ELEMENT_THEORY":"SGP4","FILE":"3139397"},{"RCS_SIZE":"LARGE","CLASSIFICATION_TYPE":"U","NORAD_CAT_ID":"45540","GP_ID":"185959063","REF_FRAME":"TEME","MEAN_MOTION":"15.06409254","TLE_LINE2":"2 45540  53.0550 178.2436 0001818  69.6963 290.4221 15.06409254 80943","ECCENTRICITY":"0.00018180","SITE":"AFETR","LAUNCH_DATE":"2020-04-22","CENTER_NAME":"EARTH","MEAN_MOTION_DOT":"0.00001473","OBJECT_NAME":"STARLINK-1368","ELEMENT_SET_NO":"999","EPOCH":"2021-10-01T21:04:52.121856","APOAPSIS":"548.444","EPHEMERIS_TYPE":"0","TLE_LINE1":"1 45540U 20025K   21274.87838104  .00001473  00000-0  11776-3 0  9992","INCLINATION":"53.0550","BSTAR":"0.00011776000000","DECAY_DATE":null,"TIME_SYSTEM":"UTC","MEAN_MOTION_DDOT":"0.0000000000000","COUNTRY_CODE":"US","PERIOD":"95.592","REV_AT_EPOCH":"8094","OBJECT_ID":"2020-025K","SEMIMAJOR_AXIS":"6925.320","ARG_OF_PERICENTER":"69.6963","RA_OF_ASC_NODE":"178.2436","PERIAPSIS":"545.926","FILE":"3139397","MEAN_ELEMENT_THEORY":"SGP4","MEAN_ANOMALY":"290.4221","OBJECT_TYPE":"PAYLOAD"},{"RCS_SIZE":"LARGE","GP_ID":"185960307","NORAD_CAT_ID":"45541","CLASSIFICATION_TYPE":"U","MEAN_MOTION":"15.06399169","REF_FRAME":"TEME","TLE_LINE2":"2 45541  53.0533 178.2251 0001690  71.1436 288.9736 15.06399169 80947","ECCENTRICITY":"0.00016900","SITE":"AFETR","CENTER_NAME":"EARTH","MEAN_MOTION_DOT":"0.00001037","LAUNCH_DATE":"2020-04-22","OBJECT_NAME":"STARLINK-1369","EPOCH":"2021-10-01T21:10:09.764544","ELEMENT_SET_NO":"999","APOAPSIS":"548.386","EPHEMERIS_TYPE":"0","TLE_LINE1":"1 45541U 20025L   21274.88205746  .00001037  00000-0  88488-4 0  9995","INCLINATION":"53.0533","BSTAR":"0.00008848800000","TIME_SYSTEM":"UTC","DECAY_DATE":null,"PERIOD":"95.592","MEAN_MOTION_DDOT":"0.0000000000000","COUNTRY_CODE":"US","REV_AT_EPOCH":"8094","ARG_OF_PERICENTER":"71.1436","OBJECT_ID":"2020-025L","SEMIMAJOR_AXIS":"6925.351","RA_OF_ASC_NODE":"178.2251","PERIAPSIS":"546.046","FILE":"3139397","MEAN_ELEMENT_THEORY":"SGP4","MEAN_ANOMALY":"288.9736","OBJECT_TYPE":"PAYLOAD"},{"EPHEMERIS_TYPE":"0","TLE_LINE1":"1 45542U 20025M   21274.45081405  .00000410  00000-0  46463-4 0  9994","INCLINATION":"53.0545","BSTAR":"0.00004646300000","DECAY_DATE":null,"TIME_SYSTEM":"UTC","OBJECT_NAME":"STARLINK-1371","ELEMENT_SET_NO":"999","EPOCH":"2021-10-01T10:49:10.333920","APOAPSIS":"548.648","TLE_LINE2":"2 45542  53.0545 180.1584 0002007  72.3306 287.7902 15.06385465 80883","ECCENTRICITY":"0.00020070","SITE":"AFETR","LAUNCH_DATE":"2020-04-22","CENTER_NAME":"EARTH","MEAN_MOTION_DOT":"0.00000410","RCS_SIZE":"LARGE","CLASSIFICATION_TYPE":"U","GP_ID":"185924427","NORAD_CAT_ID":"45542","REF_FRAME":"TEME","MEAN_MOTION":"15.06385465","FILE":"3138865","MEAN_ELEMENT_THEORY":"SGP4","MEAN_ANOMALY":"287.7902","OBJECT_TYPE":"PAYLOAD","RA_OF_ASC_NODE":"180.1584","PERIAPSIS":"545.868","COUNTRY_CODE":"US","MEAN_MOTION_DDOT":"0.0000000000000","PERIOD":"95.593","REV_AT_EPOCH":"8088","SEMIMAJOR_AXIS":"6925.393","OBJECT_ID":"2020-025M","ARG_OF_PERICENTER":"72.3306"},{"RA_OF_ASC_NODE":"178.2062","PERIAPSIS":"546.012","PERIOD":"95.592","COUNTRY_CODE":"US","MEAN_MOTION_DDOT":"0.0000000000000","ARG_OF_PERICENTER":"74.1558","OBJECT_ID":"2020-025N","SEMIMAJOR_AXIS":"6925.358","REV_AT_EPOCH":"8004","MEAN_ELEMENT_THEORY":"SGP4","FILE":"3139397","MEAN_ANOMALY":"285.9624","OBJECT_TYPE":"PAYLOAD","ECCENTRICITY":"0.00017490","TLE_LINE2":"2 45543  53.0531 178.2062 0001749  74.1558 285.9624 15.06396915 80040","CENTER_NAME":"EARTH","MEAN_MOTION_DOT":"0.00000140","LAUNCH_DATE":"2020-04-22","SITE":"AFETR","NORAD_CAT_ID":"45543","GP_ID":"185959314","CLASSIFICATION_TYPE":"U","RCS_SIZE":"LARGE","MEAN_MOTION":"15.06396915","REF_FRAME":"TEME","TLE_LINE1":"1 45543U 20025N   21274.88574922  .00000140  00000-0  28280-4 0  9990","INCLINATION":"53.0531","EPHEMERIS_TYPE":"0","TIME_SYSTEM":"UTC","DECAY_DATE":null,"BSTAR":"0.00002828000000","EPOCH":"2021-10-01T21:15:28.732608","ELEMENT_SET_NO":"999","OBJECT_NAME":"STARLINK-1372","APOAPSIS":"548.434"},{"OBJECT_TYPE":"PAYLOAD","MEAN_ANOMALY":"287.7159","MEAN_ELEMENT_THEORY":"SGP4","FILE":"3139397","PERIAPSIS":"545.977","RA_OF_ASC_NODE":"179.0229","OBJECT_ID":"2020-025P","SEMIMAJOR_AXIS":"6925.333","ARG_OF_PERICENTER":"72.4023","REV_AT_EPOCH":"8092","COUNTRY_CODE":"US","MEAN_MOTION_DDOT":"0.0000000000000","PERIOD":"95.592","DECAY_DATE":null,"TIME_SYSTEM":"UTC","BSTAR":"0.00009285800000","TLE_LINE1":"1 45544U 20025P   21274.70513051  .00001102  00000-0  92858-4 0  9999","INCLINATION":"53.0540","EPHEMERIS_TYPE":"0","APOAPSIS":"548.420","ELEMENT_SET_NO":"999","EPOCH":"2021-10-01T16:55:23.276064","OBJECT_NAME":"STARLINK-1373","LAUNCH_DATE":"2020-04-22","MEAN_MOTION_DOT":"0.00001102","CENTER_NAME":"EARTH","SITE":"AFETR","ECCENTRICITY":"0.00017640","TLE_LINE2":"2 45544  53.0540 179.0229 0001764  72.4023 287.7159 15.06404997 80920","REF_FRAME":"TEME","MEAN_MOTION":"15.06404997","CLASSIFICATION_TYPE":"U","GP_ID":"185959563","NORAD_CAT_ID":"45544","RCS_SIZE":"LARGE"}];
